      2.10          N: GNSS NAV DATA                        RINEX VERSION / TYPE
fic2rin                                 01/01/2025 00:59:02 PGM / RUN BY / DATE
                                                            END OF HEADER
5  24 12 31  1 59 44.0 -.197599641979D-03 -.113686837722D-11  .000000000000D+00
     .180000000000D+02 -.135437500000D+03  .416767360033D-08 -.203807656529D+01
    -.693090260029D-05  .560278177727D-02  .297650694847D-05  .515372893906D+04
     .179984000000D+06  .540167093277D-07 -.861753297084D+00  .447034835815D-07
     .974487660214D+00  .328437500000D+03  .133008354357D+01 -.801176229349D-08
    -.316798910232D-09  .100000000000D+01  .234700000000D+04  .000000000000D+00
     .240000000000D+01  .000000000000D+00 -.107102096081D-07  .180000000000D+02
     .172800000000D+06  .400000000000D+01
3  24 12 31  1 59 44.0  .636274926364D-03  .795807864051D-11  .000000000000D+00
     .630000000000D+02 -.125531250000D+03  .395766485263D-08  .603577316961D+00
    -.659003853798D-05  .566361588426D-02  .316277146339D-05  .515360602570D+04
     .179984000000D+06 -.428408384323D-07 -.807579800677D+00  .130385160446D-07
     .987663904417D+00  .332593750000D+03  .114619709923D+01 -.801461955536D-08
    -.351086052715D-09  .100000000000D+01  .234700000000D+04  .000000000000D+00
     .240000000000D+01  .000000000000D+00  .139698386192D-08  .630000000000D+02
     .172800000000D+06  .400000000000D+01
7  24 12 31  1 59 44.0 -.141789205372D-04  .682121026330D-12  .000000000000D+00
     .260000000000D+02  .132812500000D+02  .512949937852D-08  .114866841698D+01
     .704079866409D-06  .188885480165D-01  .648573040962D-05  .515375326920D+04
     .179984000000D+06 -.348314642906D-06  .127978361139D+01  .782310962677D-07
     .949926664213D+00  .254500000000D+03 -.208648621567D+01 -.843392273531D-08
     .290726395636D-09  .100000000000D+01  .234700000000D+04  .000000000000D+00
     .240000000000D+01  .000000000000D+00 -.107102096081D-07  .260000000000D+02
     .172800000000D+06  .400000000000D+01
10 24 12 31 18  0  0.0 -.257346313447D-03 -.159161572810D-10  .000000000000D+00
     .200000000000D+02 -.122718750000D+03  .392766360295D-08  .170504398138D+01
    -.640377402306D-05  .101163502550D-01  .284425914288D-05  .515368668365D+04
     .237600000000D+06 -.264495611191D-06 -.810567772818D+00  .186264514923D-08
     .987271502975D+00  .340937500000D+03 -.233508282681D+01 -.807105047736D-08
    -.275725770799D-09  .100000000000D+01  .234700000000D+04  .000000000000D+00
     .240000000000D+01  .000000000000D+00  .232830643654D-08  .200000000000D+02
     .230400000000D+06  .400000000000D+01
5  24 12 31 18  0  0.0 -.197664834559D-03 -.113686837722D-11  .000000000000D+00
     .940000000000D+02 -.104531250000D+03  .413302930012D-08  .821865621431D-01
    -.534392893314D-05  .560378516093D-02  .212900340557D-05  .515373034859D+04
     .237600000000D+06 -.106170773506D-06 -.862224421074D+00  .130385160446D-07
     .974474169183D+00  .345375000000D+03  .133013403326D+01 -.821105630917D-08
    -.182507602174D-09  .100000000000D+01  .234700000000D+04  .000000000000D+00
     .240000000000D+01  .000000000000D+00 -.107102096081D-07  .940000000000D+02
     .230400000000D+06  .400000000000D+01
3  24 12 31 18  0  0.0  .636734534055D-03  .795807864051D-11  .000000000000D+00
     .181000000000D+03 -.125375000000D+03  .384337437768D-08  .272435140218D+01
    -.643357634544D-05  .566486862954D-02  .197067856789D-05  .515360457802D+04
     .237600000000D+06  .558793544769D-07 -.808040808589D+00  .000000000000D+00
     .987651144846D+00  .354812500000D+03  .114631905832D+01 -.793497338063D-08
    -.209294432239D-09  .100000000000D+01  .234700000000D+04  .000000000000D+00
     .240000000000D+01  .000000000000D+00  .139698386192D-08  .181000000000D+03
     .230400000000D+06  .400000000000D+01
4  24 12 31 18  0  0.0  .504757277668D-03  .602540239925D-11  .000000000000D+00
     .700000000000D+01 -.101593750000D+03  .394695012060D-08 -.572763882235D+00
    -.521354377270D-05  .323310610838D-02  .108107924461D-04  .515368545723D+04
     .237600000000D+06  .651925802231D-07  .267938197776D+00  .279396772385D-07
     .966974573778D+00  .171781250000D+03 -.296728107098D+01 -.762317467868D-08
     .438232539859D-09  .100000000000D+01  .234700000000D+04  .000000000000D+00
     .240000000000D+01  .000000000000D+00 -.465661287308D-08  .775000000000D+03
     .230400000000D+06  .400000000000D+01
16 24 12 31 18  0  0.0 -.893273390830D-04  .943600753089D-11  .000000000000D+00
     .170000000000D+02 -.262500000000D+01  .486877423256D-08  .757165253258D+00
     .162050127983D-06  .144555619918D-01  .778958201408D-05  .515366371346D+04
     .237600000000D+06 -.106170773506D-06  .241351151667D+01  .121071934700D-06
     .960304008197D+00  .231156250000D+03  .864504193110D+00 -.813391023858D-08
    -.751459872749D-09  .100000000000D+01  .234700000000D+04  .000000000000D+00
     .240000000000D+01  .000000000000D+00 -.107102096081D-07  .170000000000D+02
     .230400000000D+06  .400000000000D+01
20 24 12 31 18  0  0.0  .367438886315D-03 -.341060513165D-12  .000000000000D+00
     .200000000000D+02 -.846562500000D+02  .462840707745D-08 -.190233364898D+01
    -.435672700405D-05  .383419531863D-02  .163912773132D-06  .515367247391D+04
     .237600000000D+06  .651925802231D-07 -.994883421231D+00 -.856816768646D-07
     .956644021229D+00  .373875000000D+03 -.237765258136D+01 -.835749098019D-08
    -.113219001740D-09  .100000000000D+01  .234700000000D+04  .000000000000D+00
     .240000000000D+01  .000000000000D+00 -.838190317154D-08  .200000000000D+02
     .230400000000D+06  .400000000000D+01
12 24 12 31 18  0  0.0 -.561734195799D-03 -.227373675443D-11  .000000000000D+00
     .520000000000D+02 -.143437500000D+02  .471412493365D-08  .253787473850D+01
    -.808387994766D-06  .897906080354D-02  .752694904804D-05  .515376453018D+04
     .237600000000D+06  .409781932831D-07  .239592105760D+01 -.150874257088D-06
     .960926724147D+00  .229031250000D+03  .146369662525D+01 -.781961143249D-08
    -.657170230921D-09  .100000000000D+01  .234700000000D+04  .000000000000D+00
     .240000000000D+01  .000000000000D+00 -.125728547573D-07  .520000000000D+02
     .230400000000D+06  .400000000000D+01
6  24 12 31 18  0  0.0 -.853976234794D-04 -.276259015664D-10  .000000000000D+00
     .630000000000D+02  .108468750000D+03  .397302263520D-08 -.219141675056D+01
     .564754009247D-05  .343055615667D-02  .213086605072D-05  .515375786400D+04
     .237600000000D+06 -.596046447754D-07 -.184427091317D+01  .745058059692D-07
     .989105403913D+00  .355500000000D+03 -.732020912821D+00 -.803676333488D-08
     .182150444440D-09  .100000000000D+01  .234700000000D+04  .000000000000D+00
     .240000000000D+01  .000000000000D+00  .372529029846D-08  .630000000000D+02
     .230400000000D+06  .400000000000D+01
8  24 12 31 18  0  0.0  .451087951660D-03  .829913915368D-11  .000000000000D+00
     .340000000000D+02  .102687500000D+03  .446840041253D-08 -.252850570641D+00
     .524334609509D-05  .102629456669D-01  .104997307062D-04  .515373528290D+04
     .237600000000D+06  .100582838058D-06 -.294778505286D+01  .800937414169D-07
     .950261631491D+00  .170437500000D+03  .395999032824D+00 -.797818946647D-08
    -.439304013061D-09  .100000000000D+01  .234700000000D+04  .000000000000D+00
     .240000000000D+01  .000000000000D+00  .465661287308D-08  .340000000000D+02
     .230400000000D+06  .400000000000D+01
7  24 12 31 18  0  0.0 -.141379423440D-04  .682121026330D-12  .000000000000D+00
     .111000000000D+03  .806250000000D+01  .499735101687D-08 -.301436913580D+01
     .216066837311D-06  .188925847178D-01  .673532485962D-05  .515375423050D+04
     .237600000000D+06  .210478901863D-06  .127931616079D+01 -.286847352982D-06
     .949953331746D+00  .243031250000D+03 -.208639273959D+01 -.775746598674D-08
     .587167315018D-09  .100000000000D+01  .234700000000D+04  .000000000000D+00
     .240000000000D+01  .000000000000D+00 -.107102096081D-07  .111000000000D+03
     .230400000000D+06  .400000000000D+01
9  24 12 31 18  0  0.0  .510196667165D-03  .154614099301D-10  .000000000000D+00
     .810000000000D+02 -.110125000000D+03  .408767026787D-08  .317972308960D+00
    -.577792525291D-05  .319634145126D-02  .105686485767D-04  .515379797363D+04
     .237600000000D+06 -.558793544769D-08  .206781896405D+00 -.111758708954D-07
     .960783560057D+00  .173218750000D+03  .203220867945D+01 -.774032241550D-08
     .368586781690D-09  .100000000000D+01  .234700000000D+04  .000000000000D+00
     .240000000000D+01  .000000000000D+00  .931322574615D-09  .810000000000D+02
     .230400000000D+06  .400000000000D+01
11 24 12 31 18  0  0.0 -.752557534724D-03  .454747350886D-12  .000000000000D+00
     .163000000000D+03  .100593750000D+03  .447161483213D-08 -.114928395000D+01
     .518560409546D-05  .175195327029D-02  .140257179737D-05  .515359255600D+04
     .237600000000D+06  .800937414169D-07 -.181605137849D+01  .316649675369D-07
     .965777128517D+00  .357656250000D+03 -.234792766740D+01 -.829248827256D-08
     .127505311108D-09  .100000000000D+01  .234700000000D+04  .000000000000D+00
     .240000000000D+01  .000000000000D+00 -.884756445885D-08  .163000000000D+03
     .230400000000D+06  .400000000000D+01
26 24 12 31 18  0  0.0 -.299918465316D-04 -.147792889038D-10  .000000000000D+00
     .450000000000D+02 -.140937500000D+02  .568666544387D-08  .157193085780D+01
    -.577419996262D-06  .979331927374D-02  .682100653648D-05  .515374470139D+04
     .237600000000D+06 -.149011611938D-06  .224034616988D+01  .167638063431D-06
     .929635507690D+00  .234781250000D+03  .602347947901D+00 -.845106630655D-08
    -.557523223080D-09  .100000000000D+01  .234700000000D+04  .000000000000D+00
     .240000000000D+01  .000000000000D+00  .651925802231D-08  .450000000000D+02
     .230400000000D+06  .400000000000D+01
